[{"OBJECT_NAME":"ENSHI XIDA SHANQUAN","OBJECT_ID":"2025-160A","EPOCH":"2026-03-09T22:31:41.412864","MEAN_MOTION":15.35264812,"ECCENTRICITY":0.00086596,"INCLINATION":97.3677,"RA_OF_ASC_NODE":146.4003,"ARG_OF_PERICENTER":192.7492,"MEAN_ANOMALY":167.3534,"EPHEMERIS_TYPE":0,"CLASSIFICATION_TYPE":"U","NORAD_CAT_ID":64962,"ELEMENT_SET_NO":999,"REV_AT_EPOCH":3415,"BSTAR":0.0011064868,"MEAN_MOTION_DOT":0.00037992,"MEAN_MOTION_DDOT":0},{"OBJECT_NAME":"CZ-4 DEB","OBJECT_ID":"2007-042D","EPOCH":"2026-03-08T12:29:11.863680","MEAN_MOTION":15.39020135,"ECCENTRICITY":0.00238388,"INCLINATION":98.6648,"RA_OF_ASC_NODE":274.5168,"ARG_OF_PERICENTER":151.0279,"MEAN_ANOMALY":209.2291,"EPHEMERIS_TYPE":0,"CLASSIFICATION_TYPE":"U","NORAD_CAT_ID":32474,"ELEMENT_SET_NO":999,"REV_AT_EPOCH":98579,"BSTAR":0.0030401644,"MEAN_MOTION_DOT":0.00120221,"MEAN_MOTION_DDOT":0}]
